ICEYE-X40               
1 60549U 24149CK  26204.63976196  .00003720  00000+0  31896-3 0  9996
2 60549  97.6808 280.5506 0003403 338.6321  21.4758 14.98123234105534
ICEYE-X49               
1 62384U 24247H   26204.27519071  .00003672  00000+0  21576-3 0  9999
2 62384  44.9969 164.6226 0000646 185.0567 175.0304 15.13496291 87647
ICEYE-X47               
1 62389U 24247N   26204.58084062  .00002029  00000+0  12547-3 0  9998
2 62389  44.9966 162.5791 0000607  59.5565 300.5372 15.13514484 87693
ICEYE-X42               
1 62698U 25009CT  26204.22494391  .00001776  00000+0  18143-3 0  9995
2 62698  97.7387 281.8893 0001318  99.6162 260.5206 14.91841477 82668
ICEYE-X41               
1 62700U 25009CV  26204.50239797  .00003820  00000+0  33734-3 0  9992
2 62700  97.7058 283.5022 0000832 156.4930 203.6330 14.96952485 82848
ICEYE-X45               
1 62705U 25009DA  26204.66509186  .00004685  00000+0  37320-3 0  9991
2 62705  97.8435 291.6599 0000710  43.5454 316.5825 15.00858467 83153
ICEYE-X44               
1 62707U 25009DC  26204.20131147  .00001920  00000+0  17543-3 0  9995
2 62707  97.7048 282.7598 0001890  55.9937 304.1463 14.96195449105320
ICEYE-X48               
1 63253U 25052AV  26204.52586194  .00002760  00000+0  23766-3 0  9998
2 63253  97.6843  96.1542 0004331  83.7709 276.4007 14.98166597 74115
ICEYE-X50               
1 63255U 25052AX  26204.82789910  .00001499  00000+0  14089-3 0  9990
2 63255  97.6842  96.0127 0003419  87.4057 272.7555 14.95382079 74127
ICEYE-X51               
1 63257U 25052AZ  26203.79241580  .00004103  00000+0  32696-3 0  9992
2 63257  97.7619  98.8279 0002114  62.8734 297.2705 15.00900798 74142
ICEYE-X46               
1 63258U 25052BA  26204.69077801  .00001325  00000+0  12513-3 0  9995
2 63258  97.6845  95.8778 0001514  84.1926 275.9468 14.95384421 74104
ICEYE-X54               
1 64570U 25135AU  26204.57703881  .00003512  00000+0  32889-3 0  9994
2 64570  97.7742 318.6549 0002486 168.2129 191.9150 14.94700818 59333
ICEYE-X52               
1 64572U 25135AW  26204.84892020  .00001772  00000+0  17295-3 0  9990
2 64572  97.7773 318.7021 0001971 164.2480 195.8802 14.93674478 59359
ICEYE-X56               
1 64574U 25135AY  26204.82623723  .00002746  00000+0  25122-3 0  9992
2 64574  97.7771 319.5068 0001915 167.4466 192.6803 14.95803576 59403
ICEYE-X57               
1 64578U 25135BC  26204.80170843  .00002149  00000+0  17379-3 0  9996
2 64578  97.8044 321.3904 0002145  54.1921 305.9502 15.00870244 59515
ICEYE-X55               
1 64581U 25135BF  26204.83601549  .00003062  00000+0  28245-3 0  9994
2 64581  97.7763 319.3366 0002603 202.9858 157.1246 14.95398176 59396
